ORBCOMM FM24            
1 25478U 98053D   25151.28650154  .00000992  00000+0  37110-3 0  9990
2 25478  45.0094 349.2283 0002556 136.2268 223.8783 14.38063968395296
ORBCOMM FM25            
1 25479U 98053E   25151.25754897  .00000934  00000+0  35220-3 0  9993
2 25479  45.0085 347.6338 0004793 153.7564 206.3528 14.38038274395305
ORBCOMM FM26            
1 25480U 98053F   25150.84089114  .00000786  00000+0  30937-3 0  9997
2 25480  45.0081 345.9427 0006398 171.5443 188.5514 14.37105407395151
ORBCOMM FM27            
1 25481U 98053G   25150.82877315  .00001010  00000+0  37702-3 0  9992
2 25481  45.0067 349.8761 0001085 129.5011 230.5933 14.38065337395175
ORBCOMM FM28            
1 25482U 98053H   25151.42439519  .00000879  00000+0  33283-3 0  9992
2 25482  45.0057 284.5770 0005879 210.0251 150.0261 14.38261733396110
ORBCOMM FM30            
1 25980U 99065A   25150.76330855  .00000623  00000+0  25423-3 0  9992
2 25980  45.0297 172.1863 0008774 279.2816  80.7039 14.37268011331942
ORBCOMM FM31            
1 25981U 99065B   25151.43096971  .00000572  00000+0  23786-3 0  9999
2 25981  45.0211 162.5190 0005948 298.4785  61.5463 14.37207648332569
ORBCOMM FM32            
1 25982U 99065C   25151.46630490  .00000589  00000+0  24778-3 0  9993
2 25982  45.0140 178.8179 0008127 295.9488  64.0522 14.36252502332328
